FENGYUN 1C DEB          
1 35159U 99025DMP 17345.43022133  .00000958  00000-0  45074-3 0  9991
2 35159  98.8942 321.5604 0015662   5.6863 147.9003 14.22344327500454
